{
    "links": {
        "self": "http://www.neowsapp.com/rest/v1/neo/3184153?api_key=iIulBulltgU6a56xZRHN4H3l9WmuAYTsLGpBGhQ2"
    },
    "id": "3184153",
    "neo_reference_id": "3184153",
    "name": "(2004 MO1)",
    "designation": "2004 MO1",
    "nasa_jpl_url": "http://ssd.jpl.nasa.gov/sbdb.cgi?sstr=3184153",
    "absolute_magnitude_h": 23.2,
    "estimated_diameter": {
        "kilometers": {
            "estimated_diameter_min": 0.0608912622,
            "estimated_diameter_max": 0.1361570015
        },
        "meters": {
            "estimated_diameter_min": 60.8912622106,
            "estimated_diameter_max": 136.1570015386
        },
        "miles": {
            "estimated_diameter_min": 0.0378360645,
            "estimated_diameter_max": 0.0846040122
        },
        "feet": {
            "estimated_diameter_min": 199.7744887109,
            "estimated_diameter_max": 446.7093369279
        }
    },
    "is_potentially_hazardous_asteroid": false,
    "close_approach_data": [
        {
            "close_approach_date": "2004-06-17",
            "close_approach_date_full": "2004-Jun-17 02:09",
            "epoch_date_close_approach": 1087438140000,
            "relative_velocity": {
                "kilometers_per_second": "30.5472154334",
                "kilometers_per_hour": "109969.9755600607",
                "miles_per_hour": "68331.0662028611"
            },
            "miss_distance": {
                "astronomical": "0.086740547",
                "lunar": "33.742072783",
                "kilometers": "12976201.07383489",
                "miles": "8063037.459265882"
            },
            "orbiting_body": "Earth"
        }
    ],
    "orbital_data": {
        "orbit_id": "7",
        "orbit_determination_date": "2017-04-06 09:12:37",
        "first_observation_date": "2004-06-17",
        "last_observation_date": "2004-06-19",
        "data_arc_in_days": 2,
        "observations_used": 18,
        "orbit_uncertainty": "9",
        "minimum_orbit_intersection": ".0679239",
        "jupiter_tisserand_invariant": "3.138",
        "epoch_osculation": "2453175.5",
        "eccentricity": ".4926222218358258",
        "semi_major_axis": "2.056924103042852",
        "inclination": "56.21177178121124",
        "ascending_node_longitude": "83.68959361042025",
        "orbital_period": "1077.521210444143",
        "perihelion_distance": "1.043637581254219",
        "perihelion_argument": "207.8323492080292",
        "aphelion_distance": "3.070210624831484",
        "perihelion_time": "2453199.321007771129",
        "mean_anomaly": "352.0413976871307",
        "mean_motion": ".3341001518212453",
        "equinox": "J2000",
        "orbit_class": {
            "orbit_class_type": "AMO",
            "orbit_class_description": "Near-Earth asteroid orbits similar to that of 1221 Amor",
            "orbit_class_range": "1.017 AU < q (perihelion) < 1.3 AU"
        }
    },
    "is_sentry_object": false
}